ONEWEB-0688             
1 61596U 24188C   26168.48727811  .00000011  00000+0 -43895-5 0  9997
2 61596  87.9127   5.8165 0002675  63.8846 296.2561 13.17649156 85932
ONEWEB-0689             
1 61597U 24188D   26168.49596139  .00000466  00000+0  12796-2 0  9992
2 61597  87.8900  20.9897 0002068  90.9972 269.1393 13.11419171 84496
ONEWEB-0690             
1 61598U 24188E   26168.50614702  .00000484  00000+0  13305-2 0  9999
2 61598  87.8894  20.9993 0001235  74.2464 285.8800 13.11415199 84676
ONEWEB-0691             
1 61599U 24188F   26168.65365882  .00000517  00000+0  14238-2 0  9991
2 61599  87.8905  20.8786 0002104  79.2309 280.9056 13.11417244 84546
ONEWEB-0692             
1 61600U 24188G   26168.59769447  .00000013  00000+0  78520-6 0  9991
2 61600  87.8884  21.0031 0001902 110.5630 249.5702 13.11414200 84528
ONEWEB-0693             
1 61601U 24188H   26168.49908795  .00000005  00000+0 -20693-4 0  9990
2 61601  87.9124   5.8343 0001284  66.8261 293.3006 13.17648337 85924
ONEWEB-0695             
1 61602U 24188J   26168.49767193  .00000487  00000+0  13395-2 0  9998
2 61602  87.8885  21.0149 0002061  98.9667 261.1694 13.11417021 84509
ONEWEB-0697             
1 61603U 24188K   26168.60616532 -.00000241  00000+0 -71652-3 0  9993
2 61603  87.8883  20.9834 0001803 110.5283 249.6038 13.11414089 84509
ONEWEB-0698             
1 61604U 24188L   26168.50784022  .00000499  00000+0  13711-2 0  9997
2 61604  87.8883  21.0172 0000947 120.9511 239.1711 13.11415105 84517
ONEWEB-0699             
1 61605U 24188M   26168.67362880  .00001814  00000+0  51592-2 0  9991
2 61605  87.8840  36.1695 0001503 104.8591 255.2702 13.10393370 83376
ONEWEB-0700             
1 61606U 24188N   26168.59893981  .00001268  00000+0  35956-2 0  9993
2 61606  87.8851  36.0933 0001907 103.0845 257.0496 13.10387513 83354
ONEWEB-0701             
1 61607U 24188P   26168.61557262  .00000228  00000+0  61756-3 0  9999
2 61607  87.8832  36.1803 0001637 109.7720 250.3584 13.10371425 83366
ONEWEB-0702             
1 61608U 24188Q   26168.62990147 -.00000250  00000+0 -74167-3 0  9991
2 61608  87.8904  20.8989 0002098 114.8639 245.2707 13.11420387 84544
ONEWEB-0704             
1 61609U 24188R   26168.60394191  .00000120  00000+0  30730-3 0  9999
2 61609  87.8839  36.1720 0002284 110.8107 249.3266 13.10376453 83343
ONEWEB-0705             
1 61610U 24188S   26168.60891350  .00000322  00000+0  88613-3 0  9997
2 61610  87.8845  36.1765 0002687  96.8996 263.2437 13.10379555 75518
ONEWEB-0706             
1 61611U 24188T   26168.67029029  .00002431  00000+0  69237-2 0  9994
2 61611  87.8828  36.1694 0001888 100.8008 259.3331 13.10401004 83448
ONEWEB-0707             
1 61612U 24188U   26168.67696773  .00000497  00000+0  13865-2 0  9997
2 61612  87.8853  36.1622 0002024  98.4958 261.6398 13.10381671 83386
ONEWEB-0708             
1 61613U 24188V   26168.61892030 -.00001792  00000+0 -51712-2 0  9990
2 61613  87.8842  36.1922 0002674  83.4299 276.7133 13.10352864 83354
